start=new Date('2023-02-01T00:00:00.000Z').valueOf();
sats=[{"APOAPSIS":"564.358","DECAY_DATE":null,"SITE":"AFWTR","TIME_SYSTEM":"UTC","MEAN_ANOMALY":"264.3279","NORAD_CAT_ID":"53668","REF_FRAME":"TEME","SEMIMAJOR_AXIS":"6941.104","CENTER_NAME":"EARTH","OBJECT_ID":"2022-105W","LAUNCH_DATE":"2022-08-31","OBJECT_TYPE":"PAYLOAD","INCLINATION":"97.6549","ECCENTRICITY":"0.00020010","ARG_OF_PERICENTER":"95.8173","COUNTRY_CODE":"US","RA_OF_ASC_NODE":"274.9379","MEAN_MOTION":"15.01273820","MEAN_MOTION_DDOT":"0.0000000000000","MEAN_MOTION_DOT":"0.00000062","PERIOD":"95.919","EPHEMERIS_TYPE":"0","BSTAR":"0.00000945350000","OBJECT_NAME":"STARLINK-4458","PERIAPSIS":"561.580","TLE_LINE1":"1 53668U 22105W   23031.92309379  .00000062  00000-0  94535-5 0  9998","TLE_LINE2":"2 53668  97.6549 274.9379 0002001  95.8173 264.3279 15.01273820 23284","REV_AT_EPOCH":"2328","CLASSIFICATION_TYPE":"U","ELEMENT_SET_NO":"999","RCS_SIZE":"LARGE","FILE":"3766747","EPOCH":"2023-01-31T22:09:15.303456","MEAN_ELEMENT_THEORY":"SGP4","GP_ID":"224130101"},{"MEAN_MOTION":"15.01268070","MEAN_MOTION_DDOT":"0.0000000000000","BSTAR":"0.00014729000000","OBJECT_NAME":"STARLINK-4464","MEAN_MOTION_DOT":"0.00001834","PERIOD":"95.919","EPHEMERIS_TYPE":"0","CLASSIFICATION_TYPE":"U","ELEMENT_SET_NO":"999","RCS_SIZE":"LARGE","PERIAPSIS":"561.211","TLE_LINE1":"1 53669U 22105X   23031.92494799  .00001834  00000-0  14729-3 0  9993","TLE_LINE2":"2 53669  97.6561 274.9408 0002558  94.8850 265.2666 15.01268070 23281","REV_AT_EPOCH":"2328","MEAN_ELEMENT_THEORY":"SGP4","GP_ID":"224128849","FILE":"3766747","EPOCH":"2023-01-31T22:11:55.506336","DECAY_DATE":null,"SITE":"AFWTR","APOAPSIS":"564.763","NORAD_CAT_ID":"53669","REF_FRAME":"TEME","SEMIMAJOR_AXIS":"6941.122","TIME_SYSTEM":"UTC","MEAN_ANOMALY":"265.2666","OBJECT_TYPE":"PAYLOAD","CENTER_NAME":"EARTH","OBJECT_ID":"2022-105X","LAUNCH_DATE":"2022-08-31","ARG_OF_PERICENTER":"94.8850","COUNTRY_CODE":"US","RA_OF_ASC_NODE":"274.9408","INCLINATION":"97.6561","ECCENTRICITY":"0.00025580"},{"REF_FRAME":"TEME","NORAD_CAT_ID":"53670","SEMIMAJOR_AXIS":"6941.122","TIME_SYSTEM":"UTC","MEAN_ANOMALY":"256.2908","DECAY_DATE":null,"SITE":"AFWTR","APOAPSIS":"564.182","ARG_OF_PERICENTER":"103.8508","COUNTRY_CODE":"US","RA_OF_ASC_NODE":"274.9323","INCLINATION":"97.6564","ECCENTRICITY":"0.00017210","OBJECT_TYPE":"PAYLOAD","CENTER_NAME":"EARTH","OBJECT_ID":"2022-105Y","LAUNCH_DATE":"2022-08-31","BSTAR":"0.00030783000000","OBJECT_NAME":"STARLINK-4459","MEAN_MOTION_DOT":"0.00003898","PERIOD":"95.919","EPHEMERIS_TYPE":"0","MEAN_MOTION":"15.01268035","MEAN_MOTION_DDOT":"0.0000000000000","MEAN_ELEMENT_THEORY":"SGP4","GP_ID":"224128600","FILE":"3766747","EPOCH":"2023-01-31T22:03:55.681344","CLASSIFICATION_TYPE":"U","ELEMENT_SET_NO":"999","RCS_SIZE":"LARGE","PERIAPSIS":"561.793","TLE_LINE1":"1 53670U 22105Y   23031.91939446  .00003898  00000-0  30783-3 0  9997","TLE_LINE2":"2 53670  97.6564 274.9323 0001721 103.8508 256.2908 15.01268035 23284","REV_AT_EPOCH":"2328"},{"RA_OF_ASC_NODE":"274.9343","COUNTRY_CODE":"US","ARG_OF_PERICENTER":"101.5772","ECCENTRICITY":"0.00017160","INCLINATION":"97.6562","OBJECT_TYPE":"PAYLOAD","LAUNCH_DATE":"2022-08-31","OBJECT_ID":"2022-105Z","CENTER_NAME":"EARTH","SEMIMAJOR_AXIS":"6941.129","NORAD_CAT_ID":"53671","REF_FRAME":"TEME","MEAN_ANOMALY":"258.5645","TIME_SYSTEM":"UTC","SITE":"AFWTR","DECAY_DATE":null,"APOAPSIS":"564.185","GP_ID":"224129851","MEAN_ELEMENT_THEORY":"SGP4","EPOCH":"2023-01-31T22:06:35.545536","FILE":"3766747","RCS_SIZE":"LARGE","ELEMENT_SET_NO":"999","CLASSIFICATION_TYPE":"U","REV_AT_EPOCH":"2328","TLE_LINE2":"2 53671  97.6562 274.9343 0001716 101.5772 258.5645 15.01265782 23286","TLE_LINE1":"1 53671U 22105Z   23031.92124474  .00001293  00000-0  10519-3 0  9998","PERIAPSIS":"561.803","OBJECT_NAME":"STARLINK-4440","BSTAR":"0.00010519000000","EPHEMERIS_TYPE":"0","PERIOD":"95.919","MEAN_MOTION_DOT":"0.00001293","MEAN_MOTION_DDOT":"0.0000000000000","MEAN_MOTION":"15.01265782"},{"ARG_OF_PERICENTER":"99.3507","COUNTRY_CODE":"US","RA_OF_ASC_NODE":"274.9290","INCLINATION":"97.6560","ECCENTRICITY":"0.00015750","OBJECT_TYPE":"PAYLOAD","CENTER_NAME":"EARTH","OBJECT_ID":"2022-105AA","LAUNCH_DATE":"2022-08-31","REF_FRAME":"TEME","NORAD_CAT_ID":"53672","SEMIMAJOR_AXIS":"6941.108","TIME_SYSTEM":"UTC","MEAN_ANOMALY":"260.7895","DECAY_DATE":null,"SITE":"AFWTR","APOAPSIS":"564.066","MEAN_ELEMENT_THEORY":"SGP4","GP_ID":"224129602","FILE":"3766747","EPOCH":"2023-01-31T21:58:56.682048","CLASSIFICATION_TYPE":"U","ELEMENT_SET_NO":"999","RCS_SIZE":"MEDIUM","PERIAPSIS":"561.879","TLE_LINE1":"1 53672U 22105AA  23031.91593382  .00003107  00000-0  24629-3 0  9999","TLE_LINE2":"2 53672  97.6560 274.9290 0001575  99.3507 260.7895 15.01272747 23280","REV_AT_EPOCH":"2328","BSTAR":"0.00024629000000","OBJECT_NAME":"STARLINK-4428","MEAN_MOTION_DOT":"0.00003107","PERIOD":"95.919","EPHEMERIS_TYPE":"0","MEAN_MOTION":"15.01272747","MEAN_MOTION_DDOT":"0.0000000000000"},{"DECAY_DATE":null,"SITE":"AFWTR","APOAPSIS":"566.243","NORAD_CAT_ID":"53673","REF_FRAME":"TEME","SEMIMAJOR_AXIS":"6943.619","TIME_SYSTEM":"UTC","MEAN_ANOMALY":"270.8040","OBJECT_TYPE":"PAYLOAD","CENTER_NAME":"EARTH","OBJECT_ID":"2022-105AB","LAUNCH_DATE":"2022-08-31","ARG_OF_PERICENTER":"89.3309","COUNTRY_CODE":"US","RA_OF_ASC_NODE":"275.2291","INCLINATION":"97.6554","ECCENTRICITY":"0.00010930","MEAN_MOTION":"15.00458220","MEAN_MOTION_DDOT":"0.0000000000000","BSTAR":"0.00026217000000","OBJECT_NAME":"STARLINK-4456","MEAN_MOTION_DOT":"0.00003240","PERIOD":"95.971","EPHEMERIS_TYPE":"0","CLASSIFICATION_TYPE":"U","ELEMENT_SET_NO":"999","RCS_SIZE":"LARGE","PERIAPSIS":"564.725","TLE_LINE1":"1 53673U 22105AB  23031.63376261  .00003240  00000-0  26217-3 0  9997","TLE_LINE2":"2 53673  97.6554 275.2291 0001093  89.3309 270.8040 15.00458220 23277","REV_AT_EPOCH":"2327","MEAN_ELEMENT_THEORY":"SGP4","GP_ID":"224128350","FILE":"3766747","EPOCH":"2023-01-31T15:12:37.089504"},{"OBJECT_TYPE":"PAYLOAD","LAUNCH_DATE":"2022-08-31","OBJECT_ID":"2022-105AC","CENTER_NAME":"EARTH","RA_OF_ASC_NODE":"274.9273","COUNTRY_CODE":"US","ARG_OF_PERICENTER":"99.3466","ECCENTRICITY":"0.00015110","INCLINATION":"97.6559","SITE":"AFWTR","DECAY_DATE":null,"APOAPSIS":"564.022","SEMIMAJOR_AXIS":"6941.108","REF_FRAME":"TEME","NORAD_CAT_ID":"53674","MEAN_ANOMALY":"260.7929","TIME_SYSTEM":"UTC","RCS_SIZE":"LARGE","ELEMENT_SET_NO":"999","CLASSIFICATION_TYPE":"U","REV_AT_EPOCH":"2328","TLE_LINE2":"2 53674  97.6559 274.9273 0001511  99.3466 260.7929 15.01272677 23285","TLE_LINE1":"1 53674U 22105AC  23031.91383845  .00004222  00000-0  33302-3 0  9999","PERIAPSIS":"561.924","GP_ID":"224129100","MEAN_ELEMENT_THEORY":"SGP4","EPOCH":"2023-01-31T21:55:55.642080","FILE":"3766747","MEAN_MOTION_DDOT":"0.0000000000000","MEAN_MOTION":"15.01272677","OBJECT_NAME":"STARLINK-4620","BSTAR":"0.00033302000000","EPHEMERIS_TYPE":"0","PERIOD":"95.919","MEAN_MOTION_DOT":"0.00004222"},{"OBJECT_TYPE":"PAYLOAD","CENTER_NAME":"EARTH","OBJECT_ID":"2022-105AD","LAUNCH_DATE":"2022-08-31","ARG_OF_PERICENTER":"100.5902","COUNTRY_CODE":"US","RA_OF_ASC_NODE":"274.9293","INCLINATION":"97.6563","ECCENTRICITY":"0.00016920","DECAY_DATE":null,"SITE":"AFWTR","APOAPSIS":"564.153","REF_FRAME":"TEME","NORAD_CAT_ID":"53675","SEMIMAJOR_AXIS":"6941.113","TIME_SYSTEM":"UTC","MEAN_ANOMALY":"259.5512","CLASSIFICATION_TYPE":"U","ELEMENT_SET_NO":"999","RCS_SIZE":"LARGE","PERIAPSIS":"561.804","TLE_LINE1":"1 53675U 22105AD  23031.91754161  .00003103  00000-0  24601-3 0  9992","TLE_LINE2":"2 53675  97.6563 274.9293 0001692 100.5902 259.5512 15.01270823 23288","REV_AT_EPOCH":"2328","MEAN_ELEMENT_THEORY":"SGP4","GP_ID":"224129352","FILE":"3766747","EPOCH":"2023-01-31T22:01:15.595104","MEAN_MOTION":"15.01270823","MEAN_MOTION_DDOT":"0.0000000000000","BSTAR":"0.00024601000000","OBJECT_NAME":"STARLINK-4617","MEAN_MOTION_DOT":"0.00003103","PERIOD":"95.919","EPHEMERIS_TYPE":"0"},{"PERIAPSIS":"562.028","TLE_LINE1":"1 53676U 22105AE  23031.84348134  .00003071  00000-0  24355-3 0  9994","TLE_LINE2":"2 53676  97.6562 274.8561 0001367 104.4362 255.7014 15.01271336 23271","REV_AT_EPOCH":"2327","CLASSIFICATION_TYPE":"U","ELEMENT_SET_NO":"999","RCS_SIZE":"LARGE","FILE":"3766747","EPOCH":"2023-01-31T20:14:36.787776","MEAN_ELEMENT_THEORY":"SGP4","GP_ID":"224130102","MEAN_MOTION":"15.01271336","MEAN_MOTION_DDOT":"0.0000000000000","MEAN_MOTION_DOT":"0.00003071","PERIOD":"95.919","EPHEMERIS_TYPE":"0","BSTAR":"0.00024355000000","OBJECT_NAME":"STARLINK-4621","CENTER_NAME":"EARTH","OBJECT_ID":"2022-105AE","LAUNCH_DATE":"2022-08-31","OBJECT_TYPE":"PAYLOAD","INCLINATION":"97.6562","ECCENTRICITY":"0.00013670","ARG_OF_PERICENTER":"104.4362","COUNTRY_CODE":"US","RA_OF_ASC_NODE":"274.8561","APOAPSIS":"563.926","DECAY_DATE":null,"SITE":"AFWTR","TIME_SYSTEM":"UTC","MEAN_ANOMALY":"255.7014","REF_FRAME":"TEME","NORAD_CAT_ID":"53676","SEMIMAJOR_AXIS":"6941.112"},{"NORAD_CAT_ID":"53677","REF_FRAME":"TEME","SEMIMAJOR_AXIS":"6941.001","TIME_SYSTEM":"UTC","MEAN_ANOMALY":"264.1225","DECAY_DATE":null,"SITE":"AFWTR","APOAPSIS":"564.038","COUNTRY_CODE":"US","ARG_OF_PERICENTER":"96.0191","RA_OF_ASC_NODE":"274.9293","ECCENTRICITY":"0.00016890","INCLINATION":"97.6561","OBJECT_TYPE":"PAYLOAD","CENTER_NAME":"EARTH","LAUNCH_DATE":"2022-08-31","OBJECT_ID":"2022-105AF","OBJECT_NAME":"STARLINK-4579","BSTAR":"0.00090833000000","MEAN_MOTION_DOT":"0.00011642","EPHEMERIS_TYPE":"0","PERIOD":"95.916","MEAN_MOTION_DDOT":"0.0000000000000","MEAN_MOTION":"15.01307366","MEAN_ELEMENT_THEORY":"SGP4","GP_ID":"224128850","FILE":"3766747","EPOCH":"2023-01-31T21:58:35.397408","CLASSIFICATION_TYPE":"U","RCS_SIZE":"LARGE","ELEMENT_SET_NO":"999","TLE_LINE1":"1 53677U 22105AF  23031.91568747  .00011642  00000-0  90833-3 0  9994","PERIAPSIS":"561.694","REV_AT_EPOCH":"2328","TLE_LINE2":"2 53677  97.6561 274.9293 0001689  96.0191 264.1225 15.01307366 23289"}];
